[{"OBJECT_NAME":"MKA-PN 1","OBJECT_ID":"2012-039E","EPOCH":"2026-03-09T22:22:36.240960","MEAN_MOTION":14.25388825,"ECCENTRICITY":0.00124264,"INCLINATION":98.958,"RA_OF_ASC_NODE":183.7893,"ARG_OF_PERICENTER":95.296,"MEAN_ANOMALY":264.9637,"EPHEMERIS_TYPE":0,"CLASSIFICATION_TYPE":"U","NORAD_CAT_ID":38711,"ELEMENT_SET_NO":999,"REV_AT_EPOCH":70870,"BSTAR":0.00011675607,"MEAN_MOTION_DOT":2.29e-6,"MEAN_MOTION_DDOT":0},{"OBJECT_NAME":"COSMOS 1275 DEB","OBJECT_ID":"1981-053AM","EPOCH":"2026-03-09T22:53:12.471648","MEAN_MOTION":14.21053083,"ECCENTRICITY":0.00458891,"INCLINATION":83.1463,"RA_OF_ASC_NODE":13.6916,"ARG_OF_PERICENTER":353.0709,"MEAN_ANOMALY":76.9378,"EPHEMERIS_TYPE":0,"CLASSIFICATION_TYPE":"U","NORAD_CAT_ID":12693,"ELEMENT_SET_NO":999,"REV_AT_EPOCH":97397,"BSTAR":0.00033760344,"MEAN_MOTION_DOT":7.57e-6,"MEAN_MOTION_DDOT":0}]
